{"type":"FeatureCollection","properties":{"generated_at":"2026-09-22T11:09:29Z","window_days":90,"count":23,"latest_detection_date":"2026-09-18","last_pull_at":"2026-09-22","source":"USDA APHIS confirmed HPAI detections; county centroids from US Census"},"features":[{"type":"Feature","geometry":{"type":"Point","coordinates":[-114.105795,46.077744]},"properties":{"species":"Poultry","county":"Ravalli","state":"Montana","detection_date":"2026-09-18","severity":"MEDIUM","flyway":"Pacific Flyway","migration_phase":"FALL_MIGRATION","flock_type":"WOAH Poultry"}},{"type":"Feature","geometry":{"type":"Point","coordinates":[-95.004981,45.152714]},"properties":{"species":"Turkey","county":"Kandiyohi","state":"Minnesota","detection_date":"2026-09-16","severity":"HIGH","flyway":"Mississippi Flyway","migration_phase":"FALL_MIGRATION","flock_type":"Commercial Turkey Meat Bird"}},{"type":"Feature","geometry":{"type":"Point","coordinates":[-91.852892,45.437192]},"properties":{"species":"Turkey","county":"Barron","state":"Wisconsin","detection_date":"2026-09-16","severity":"HIGH","flyway":"Mississippi Flyway","migration_phase":"FALL_MIGRATION","flock_type":"Commercial Turkey Meat Bird"}},{"type":"Feature","geometry":{"type":"Point","coordinates":[-96.402226,45.419925]},"properties":{"species":"Turkey","county":"Big Stone","state":"Minnesota","detection_date":"2026-09-15","severity":"MEDIUM","flyway":"Mississippi Flyway","migration_phase":"FALL_MIGRATION","flock_type":"Commercial Turkey Meat Bird"}},{"type":"Feature","geometry":{"type":"Point","coordinates":[-95.741757,46.937629]},"properties":{"species":"Turkey","county":"Becker","state":"Minnesota","detection_date":"2026-09-10","severity":"HIGH","flyway":"Mississippi Flyway","migration_phase":"FALL_MIGRATION","flock_type":"Commercial Turkey Meat Bird"}},{"type":"Feature","geometry":{"type":"Point","coordinates":[-95.714581,46.405727]},"properties":{"species":"Turkey","county":"Otter Tail","state":"Minnesota","detection_date":"2026-09-10","severity":"HIGH","flyway":"Mississippi Flyway","migration_phase":"FALL_MIGRATION","flock_type":"Commercial Breeder Operation"}},{"type":"Feature","geometry":{"type":"Point","coordinates":[-99.211421,45.784249]},"properties":{"species":"Turkey","county":"McPherson","state":"South Dakota","detection_date":"2026-09-09","severity":"MEDIUM","flyway":"Central Flyway","migration_phase":"FALL_MIGRATION","flock_type":"Commercial Turkey Meat Bird"}},{"type":"Feature","geometry":{"type":"Point","coordinates":[-97.150185,43.30867]},"properties":{"species":"Turkey","county":"Turner","state":"South Dakota","detection_date":"2026-09-09","severity":"MEDIUM","flyway":"Central Flyway","migration_phase":"FALL_MIGRATION","flock_type":"Commercial Turkey Meat Bird"}},{"type":"Feature","geometry":{"type":"Point","coordinates":[-98.526057,46.464195]},"properties":{"species":"Turkey","county":"LaMoure","state":"North Dakota","detection_date":"2026-09-04","severity":"MEDIUM","flyway":"Central Flyway","migration_phase":"FALL_MIGRATION","flock_type":"Commercial Turkey Meat Bird"}},{"type":"Feature","geometry":{"type":"Point","coordinates":[-99.205362,45.41168]},"properties":{"species":"Turkey","county":"Edmunds","state":"South Dakota","detection_date":"2026-09-04","severity":"LOW","flyway":"Central Flyway","migration_phase":"FALL_MIGRATION","flock_type":"Commercial Breeder Operation"}},{"type":"Feature","geometry":{"type":"Point","coordinates":[-116.709058,43.625795]},"properties":{"species":"Poultry","county":"Canyon","state":"Idaho","detection_date":"2026-09-03","severity":"HIGH","flyway":"Pacific Flyway","migration_phase":"FALL_MIGRATION","flock_type":"WOAH Non-Poultry"}},{"type":"Feature","geometry":{"type":"Point","coordinates":[-116.398784,44.061473]},"properties":{"species":"Poultry","county":"Gem","state":"Idaho","detection_date":"2026-09-03","severity":"MEDIUM","flyway":"Pacific Flyway","migration_phase":"FALL_MIGRATION","flock_type":"WOAH Non-Poultry"}},{"type":"Feature","geometry":{"type":"Point","coordinates":[-93.966482,45.174921]},"properties":{"species":"Turkey","county":"Wright","state":"Minnesota","detection_date":"2026-09-01","severity":"HIGH","flyway":"Mississippi Flyway","migration_phase":"FALL_MIGRATION","flock_type":"Commercial Turkey Meat Bird"}},{"type":"Feature","geometry":{"type":"Point","coordinates":[-116.244376,43.451476]},"properties":{"species":"Poultry","county":"Ada","state":"Idaho","detection_date":"2026-08-28","severity":"HIGH","flyway":"Pacific Flyway","migration_phase":"LOW_RISK","flock_type":"WOAH Non-Poultry"}},{"type":"Feature","geometry":{"type":"Point","coordinates":[-97.178598,44.680619]},"properties":{"species":"Turkey","county":"Hamlin","state":"South Dakota","detection_date":"2026-08-27","severity":"MEDIUM","flyway":"Central Flyway","migration_phase":"LOW_RISK","flock_type":"Commercial Turkey Meat Bird"}},{"type":"Feature","geometry":{"type":"Point","coordinates":[-99.205362,45.41168]},"properties":{"species":"Turkey","county":"Edmunds","state":"South Dakota","detection_date":"2026-08-21","severity":"LOW","flyway":"Central Flyway","migration_phase":"LOW_RISK","flock_type":"Commercial Breeder Operation"}},{"type":"Feature","geometry":{"type":"Point","coordinates":[-99.092909,43.729873]},"properties":{"species":"Duck","county":"Brule","state":"South Dakota","detection_date":"2026-08-20","severity":"MEDIUM","flyway":"Central Flyway","migration_phase":"LOW_RISK","flock_type":"WOAH Poultry"}},{"type":"Feature","geometry":{"type":"Point","coordinates":[-116.709058,43.625795]},"properties":{"species":"Poultry","county":"Canyon","state":"Idaho","detection_date":"2026-08-20","severity":"MEDIUM","flyway":"Pacific Flyway","migration_phase":"LOW_RISK","flock_type":"WOAH Non-Poultry"}},{"type":"Feature","geometry":{"type":"Point","coordinates":[-116.244376,43.451476]},"properties":{"species":"Chicken","county":"Ada","state":"Idaho","detection_date":"2026-08-20","severity":"MEDIUM","flyway":"Pacific Flyway","migration_phase":"LOW_RISK","flock_type":"WOAH Non-Poultry"}},{"type":"Feature","geometry":{"type":"Point","coordinates":[-98.279422,44.418265]},"properties":{"species":"Turkey","county":"Beadle","state":"South Dakota","detection_date":"2026-08-12","severity":"MEDIUM","flyway":"Central Flyway","migration_phase":"LOW_RISK","flock_type":"Commercial Turkey Meat Bird"}},{"type":"Feature","geometry":{"type":"Point","coordinates":[-111.745394,41.734118]},"properties":{"species":"Chicken","county":"Cache","state":"Utah","detection_date":"2026-07-13","severity":"MEDIUM","flyway":"Pacific Flyway","migration_phase":"LOW_RISK","flock_type":"Commercial Table Egg Pullets"}},{"type":"Feature","geometry":{"type":"Point","coordinates":[-111.745394,41.734118]},"properties":{"species":"Chicken","county":"Cache","state":"Utah","detection_date":"2026-07-06","severity":"MEDIUM","flyway":"Pacific Flyway","migration_phase":"LOW_RISK","flock_type":"Commercial Table Egg Layer"}},{"type":"Feature","geometry":{"type":"Point","coordinates":[-75.398818,39.916685]},"properties":{"species":"Multiple Poultry Species","county":"Delaware","state":"Pennsylvania","detection_date":"2026-06-26","severity":"MEDIUM","flyway":"Atlantic Flyway","migration_phase":"LOW_RISK","flock_type":"Live Bird Market"}}]}